SNIPE 4                 
1 56744U 23072B   26195.84269936  .00012500  00000+0  28183-3 0  9992
2 56744  97.5223  42.7431 0004753 206.6703 153.4300 15.43383758174375
SNIPE 2                 
1 56745U 23072C   26195.86670788  .00017732  00000+0  33826-3 0  9998
2 56745  97.5213  46.0105 0003199 235.5386 124.5562 15.48213878174527
2023-072G               
1 56749U 23072G   26195.86372663  .00019896  00000+0  33063-3 0  9999
2 56749  97.4870  44.8442 0002378 205.3860 154.7276 15.52116463174758
GEISAT PRECURSOR        
1 56934U 23084C   26195.86176753  .00004198  00000+0  12612-3 0  9996
2 56934  97.6255 337.7377 0004439 231.6176 128.4668 15.35007025171772
BLACKJACK ACES-3        
1 56950U 23084U   26195.84470881  .00002829  00000+0  13968-3 0  9995
2 56950  97.6243 331.2546 0000818 242.6502 117.4648 15.18723356171360
BLACKJACK ACES-2        
1 56955U 23084Z   26195.85065844  .00003877  00000+0  19011-3 0  9999
2 56955  97.6241 331.3446 0001580 138.6890 221.4463 15.18733309171375
BLACKJACK ACES-1        
1 56956U 23084AA  26195.83817223  .00003648  00000+0  17883-3 0  9995
2 56956  97.6232 331.1034 0001882 120.5773 239.5646 15.18781151121097
ION SCV-011             
1 56957U 23084AB  26195.55305438  .00002877  00000+0  10501-3 0  9998
2 56957  98.1374  25.3729 0005985 308.3094  51.7605 15.29092833169998
GHOST-3                 
1 56958U 23084AC  26195.37178686  .00011417  00000+0  21435-3 0  9990
2 56958  97.6238 345.4239 0006749 187.3408 172.7745 15.48768595172222
AFR-1                   
1 56964U 23084AJ  26195.85571696  .00002504  00000+0  92303-4 0  9998
2 56964  97.6307 333.2218 0009249 236.2797 123.7561 15.28774795171454
METEOR-M2 3             
1 57166U 23091A   26195.85205420 -.00000015  00000+0  12140-4 0  9997
2 57166  98.6068 250.2622 0005150  91.0145 269.1624 14.24048876158451
UMKA 1 (RS40S)          
1 57172U 23091G   26195.85697068  .00003328  00000+0  15246-3 0  9995
2 57172  97.5038 254.4508 0013113  30.6450 329.5549 15.21118981168213
2023-091H               
1 57173U 23091H   26195.80160932  .00006728  00000+0  23978-3 0  9994
2 57173  97.5037 259.2258 0009631  26.6454 333.5279 15.29210978168523
2023-091J               
1 57174U 23091J   26195.81448060  .00002132  00000+0  12045-3 0  9995
2 57174  97.5040 248.5176 0014431  57.5344 302.7280 15.14110778167815
CUBEBEL 2 (EU11S)       
1 57175U 23091K   26195.85771060  .00007559  00000+0  26411-3 0  9999
2 57175  97.5039 259.3323 0009603  27.6872 332.4877 15.29818675168536
SITRO-AIS 5 (KATYS)     
1 57176U 23091L   26195.80438933  .00006814  00000+0  23653-3 0  9992
2 57176  97.5049 259.9759 0010708  13.8997 346.2536 15.30059676168568
ZORKIY-2M 1             
1 57177U 23091M   26195.84141228  .00004055  00000+0  18433-3 0  9990
2 57177  97.5078 254.7227 0013459  27.6053 332.5895 15.21247160168200
CUBESX-HSE 3 (RS42S)    
1 57178U 23091N   26195.81050078  .00007499  00000+0  24591-3 0  9997
2 57178  97.5082 261.7575 0009703   3.4903 356.6404 15.31878553168652
MONITOR-3 (RS58S)       
1 57180U 23091Q   26195.83169500  .00005728  00000+0  20982-3 0  9996
2 57180  97.5072 259.4883 0011025  10.9564 349.1913 15.28368399168511
MONITOR-4 (RS57S)       
1 57182U 23091S   26195.80921203  .00005926  00000+0  21638-3 0  9990
2 57182  97.5066 259.4383 0011025  11.5479 348.6011 15.28454875168511
MONITOR-2 (RS39S)       
1 57184U 23091U   26195.84762969  .00002722  00000+0  13262-3 0  9993
2 57184  97.5059 253.9536 0011455  25.2616 334.9176 15.19152475168157
SVYATOBOR 1 (RS60S)     
1 57187U 23091X   26195.84680194  .00004990  00000+0  19066-3 0  9992
2 57187  97.5078 259.8229 0008779   5.8342 354.2998 15.27059543168530
HORS 1                  
1 57188U 23091Y   26195.83030975  .00005069  00000+0  19297-3 0  9992
2 57188  97.5055 259.5651 0008221   6.1692 353.9647 15.27178709168539
VIZARD-METEO (RS38S)    
1 57189U 23091Z   26195.82644110  .00009794  00000+0  27391-3 0  9997
2 57189  97.5083 265.8802 0005709 341.2489  18.8544 15.36867267168935
SITRO-AIS 6 (CHIRKIN)   
1 57192U 23091AC  26195.84798294  .00005577  00000+0  21662-3 0  9996
2 57192  97.5056 258.9899 0011201  17.8335 342.3294 15.26433655168507
SITRO-AIS 8 (ANOKHIN)   
1 57193U 23091AD  26195.83740513  .00007990  00000+0  25400-3 0  9992
2 57193  97.5045 261.7127 0009563   9.3968 350.7451 15.32851650168681
SITRO-AIS 7 (FARTUSHNIY)
1 57194U 23091AE  26195.85690260  .00005470  00000+0  21461-3 0  9992
2 57194  97.5052 258.8093 0011181  19.0912 341.0743 15.26107860168491
AVION KALUGA 650        
1 57195U 23091AF  26195.80233867  .00003095  00000+0  14415-3 0  9996
2 57195  97.5077 255.2695 0010501  23.7691 336.4027 15.20629950168226
HORS 2                  
1 57196U 23091AG  26195.85397760  .00007551  00000+0  24259-3 0  9993
2 57196  97.5079 263.2714 0006871 356.4293   3.6898 15.32556899168761
A-SEANSAT-PG1           
1 57197U 23091AH  26195.80273912  .00010902  00000+0  29487-3 0  9993
2 57197  97.5071 265.9895 0005693 350.8305   9.2835 15.37875599168956
