OBJECT_NAME,OBJECT_ID,EPOCH,MEAN_MOTION,ECCENTRICITY,INCLINATION,RA_OF_ASC_NODE,ARG_OF_PERICENTER,MEAN_ANOMALY,EPHEMERIS_TYPE,CLASSIFICATION_TYPE,NORAD_CAT_ID,ELEMENT_SET_NO,REV_AT_EPOCH,BSTAR,MEAN_MOTION_DOT,MEAN_MOTION_DDOT
SNIPE 4,2023-072B,2026-07-14T20:13:29.224704,15.43383758,.0004753,97.5223,42.7431,206.6703,153.4300,0,U,56744,999,17437,.28183E-3,.125E-3,0
SNIPE 2,2023-072C,2026-07-14T20:48:03.560832,15.48213878,.0003199,97.5213,46.0105,235.5386,124.5562,0,U,56745,999,17452,.33826E-3,.17732E-3,0
2023-072G,2023-072G,2026-07-14T20:43:45.980832,15.52116463,.0002378,97.4870,44.8442,205.3860,154.7276,0,U,56749,999,17475,.33063E-3,.19896E-3,0
GEISAT PRECURSOR,2023-084C,2026-07-14T20:40:56.714592,15.35007025,.0004439,97.6255,337.7377,231.6176,128.4668,0,U,56934,999,17177,.12612E-3,.4198E-4,0
BLACKJACK ACES-3,2023-084U,2026-07-14T20:16:22.841184,15.18723356,.0000818,97.6243,331.2546,242.6502,117.4648,0,U,56950,999,17136,.13968E-3,.2829E-4,0
BLACKJACK ACES-2,2023-084Z,2026-07-14T20:24:56.889216,15.18733309,.000158,97.6241,331.3446,138.6890,221.4463,0,U,56955,999,17137,.19011E-3,.3877E-4,0
BLACKJACK ACES-1,2023-084AA,2026-07-14T20:06:58.080672,15.18781151,.0001882,97.6232,331.1034,120.5773,239.5646,0,U,56956,999,12109,.17883E-3,.3648E-4,0
ION SCV-011,2023-084AB,2026-07-14T13:16:23.898432,15.29092833,.0005985,98.1374,25.3729,308.3094,51.7605,0,U,56957,999,16999,.10501E-3,.2877E-4,0
GHOST-3,2023-084AC,2026-07-14T08:55:22.384704,15.48768595,.00067496,97.6238,345.4239,187.3408,172.7745,0,U,56958,999,17222,.21434832E-3,.11417E-3,0
AFR-1,2023-084AJ,2026-07-14T20:32:13.945344,15.28774795,.0009249,97.6307,333.2218,236.2797,123.7561,0,U,56964,999,17145,.92303E-4,.2504E-4,0
METEOR-M2 3,2023-091A,2026-07-14T20:26:57.482880,14.24048876,.000515,98.6068,250.2622,91.0145,269.1624,0,U,57166,999,15845,.1214E-4,-.15E-6,0
UMKA 1 (RS40S),2023-091G,2026-07-14T20:34:02.266752,15.21118981,.0013113,97.5038,254.4508,30.6450,329.5549,0,U,57172,999,16821,.15246E-3,.3328E-4,0
2023-091H,2023-091H,2026-07-14T19:14:19.045248,15.29210978,.0009631,97.5037,259.2258,26.6454,333.5279,0,U,57173,999,16852,.23978E-3,.6728E-4,0
2023-091J,2023-091J,2026-07-14T19:32:51.123840,15.14110778,.0014431,97.5040,248.5176,57.5344,302.7280,0,U,57174,999,16781,.12045E-3,.2132E-4,0
CUBEBEL 2 (EU11S),2023-091K,2026-07-14T20:35:06.195840,15.29818675,.0009603,97.5039,259.3323,27.6872,332.4877,0,U,57175,999,16853,.26411E-3,.7559E-4,0
SITRO-AIS 5 (KATYS),2023-091L,2026-07-14T19:18:19.238112,15.30059676,.0010708,97.5049,259.9759,13.8997,346.2536,0,U,57176,999,16856,.23653E-3,.6814E-4,0
ZORKIY-2M 1,2023-091M,2026-07-14T20:11:38.020992,15.21247160,.0013459,97.5078,254.7227,27.6053,332.5895,0,U,57177,999,16820,.18433E-3,.4055E-4,0
CUBESX-HSE 3 (RS42S),2023-091N,2026-07-14T19:27:07.267392,15.31878553,.0009703,97.5082,261.7575,3.4903,356.6404,0,U,57178,999,16865,.24591E-3,.7499E-4,0
MONITOR-3 (RS58S),2023-091Q,2026-07-14T19:57:38.448000,15.28368399,.0011025,97.5072,259.4883,10.9564,349.1913,0,U,57180,999,16851,.20982E-3,.5728E-4,0
MONITOR-4 (RS57S),2023-091S,2026-07-14T19:25:15.919392,15.28454875,.0011025,97.5066,259.4383,11.5479,348.6011,0,U,57182,999,16851,.21638E-3,.5926E-4,0
MONITOR-2 (RS39S),2023-091U,2026-07-14T20:20:35.205216,15.19152475,.0011455,97.5059,253.9536,25.2616,334.9176,0,U,57184,999,16815,.13262E-3,.2722E-4,0
SVYATOBOR 1 (RS60S),2023-091X,2026-07-14T20:19:23.687616,15.27059543,.0008779,97.5078,259.8229,5.8342,354.2998,0,U,57187,999,16853,.19066E-3,.499E-4,0
HORS 1,2023-091Y,2026-07-14T19:55:38.762400,15.27178709,.0008221,97.5055,259.5651,6.1692,353.9647,0,U,57188,999,16853,.19297E-3,.5069E-4,0
VIZARD-METEO (RS38S),2023-091Z,2026-07-14T19:50:04.511040,15.36867267,.0005709,97.5083,265.8802,341.2489,18.8544,0,U,57189,999,16893,.27391E-3,.9794E-4,0
SITRO-AIS 6 (CHIRKIN),2023-091AC,2026-07-14T20:21:05.726016,15.26433655,.0011201,97.5056,258.9899,17.8335,342.3294,0,U,57192,999,16850,.21662E-3,.5577E-4,0
SITRO-AIS 8 (ANOKHIN),2023-091AD,2026-07-14T20:05:51.803232,15.32851650,.0009563,97.5045,261.7127,9.3968,350.7451,0,U,57193,999,16868,.254E-3,.799E-4,0
SITRO-AIS 7 (FARTUSHNIY),2023-091AE,2026-07-14T20:33:56.384640,15.26107860,.0011181,97.5052,258.8093,19.0912,341.0743,0,U,57194,999,16849,.21461E-3,.547E-4,0
AVION KALUGA 650,2023-091AF,2026-07-14T19:15:22.061088,15.20629950,.0010501,97.5077,255.2695,23.7691,336.4027,0,U,57195,999,16822,.14415E-3,.3095E-4,0
HORS 2,2023-091AG,2026-07-14T20:29:43.664640,15.32556899,.0006871,97.5079,263.2714,356.4293,3.6898,0,U,57196,999,16876,.24259E-3,.7551E-4,0
A-SEANSAT-PG1,2023-091AH,2026-07-14T19:15:56.659968,15.37875599,.0005693,97.5071,265.9895,350.8305,9.2835,0,U,57197,999,16895,.29487E-3,.10902E-3,0
